     2.100          NAVIGATION                              RINEX VERSION / TYPE
fic2rin                                 10/01/2013 00:15:01 PGM / RUN BY / DATE
                                                            END OF HEADER
 3 13  9 30 10  0  0.0  .266339164227D-03  .511590769747D-11  .000000000000D+00
     .103000000000D+03 -.621875000000D+02  .535879464388D-08 -.131392463177D+01
    -.296160578728D-05  .167305977084D-01  .460073351860D-05  .515372722054D+04
     .122400000000D+06  .113621354103D-06  .136893647386D+01  .448897480965D-06
     .935411304298D+00  .275437500000D+03  .133781249235D+01 -.869071914619D-08
    -.316798910232D-09  .200000000000D+01  .176000000000D+04  .100000000000D+01
     .340000000000D+01  .000000000000D+00 -.465661287308D-08  .103000000000D+03
     .115206000000D+06  .400000000000D+01
 4 13  9 30 10  0  0.0  .141561031342D-05  .568434188608D-12  .000000000000D+00
     .100000000000D+02 -.232187500000D+02  .480627162908D-08  .179920419738D+01
    -.136718153954D-05  .106065555010D-01  .108536332846D-04  .515361988831D+04
     .122400000000D+06 -.150874257088D-06  .255702675582D+01 -.203028321266D-06
     .938249369761D+00  .163468750000D+03  .102878363505D+01 -.816891169653D-08
     .357157734196D-10  .100000000000D+01  .176000000000D+04  .000000000000D+00
     .240000000000D+01  .000000000000D+00 -.605359673500D-08  .100000000000D+02
     .115206000000D+06  .400000000000D+01
 5 13  9 30 10  0  0.0 -.399397686124D-03  .227373675443D-12  .000000000000D+00
     .720000000000D+02  .409687500000D+02  .495413493103D-08  .797444119057D+00
     .222958624363D-05  .330478430260D-02  .589713454247D-05  .515371055412D+04
     .122400000000D+06  .130385160446D-07 -.267685467559D+01  .521540641785D-07
     .948414505774D+00  .257437500000D+03  .279594966024D+00 -.836106255753D-08
     .240724312848D-09  .100000000000D+01  .176000000000D+04  .000000000000D+00
     .240000000000D+01  .000000000000D+00 -.977888703346D-08  .720000000000D+02
     .115206000000D+06  .400000000000D+01
 6 13  9 30 10  0  0.0  .791572965682D-04  .186446413863D-10  .000000000000D+00
     .260000000000D+02 -.759375000000D+02  .521200281512D-08  .506541644773D+00
    -.409968197346D-05  .813536625355D-02  .504031777382D-05  .515368036079D+04
     .122400000000D+06  .169500708580D-06  .144938547115D+01 -.111758708954D-07
     .941966151597D+00  .268843750000D+03 -.221228022258D+00 -.864035990567D-08
    -.342871424828D-09  .100000000000D+01  .176000000000D+04  .000000000000D+00
     .240000000000D+01  .000000000000D+00 -.512227416039D-08  .260000000000D+02
     .115206000000D+06  .400000000000D+01
 7 13  9 30 10  0  0.0  .264288391918D-03  .420641299570D-11  .000000000000D+00
     .840000000000D+02  .281562500000D+02  .407874132452D-08 -.286472521640D+01
     .150315463543D-05  .697249453515D-02  .108368694782D-04  .515367158127D+04
     .122400000000D+06 -.931322574615D-07 -.557455456874D+00 -.819563865662D-07
     .975048308939D+00  .181500000000D+03 -.287027871676D+01 -.769139180591D-08
     .439304013061D-10  .100000000000D+01  .176000000000D+04  .000000000000D+00
     .240000000000D+01  .000000000000D+00 -.107102096081D-07  .840000000000D+02
     .115206000000D+06  .400000000000D+01
 8 13  9 30 10  0  0.0  .878982245922D-05  .227373675443D-12  .000000000000D+00
     .800000000000D+02  .398437500000D+02  .352800409839D-08  .284906644703D+01
     .210106372833D-05  .134756643092D-01  .106394290924D-04  .515369450569D+04
     .122400000000D+06 -.165775418282D-06 -.463442223177D+00 -.134110450745D-06
     .998021667243D+00  .196187500000D+03 -.282938153839D+01 -.734209154187D-08
     .113576159474D-09  .100000000000D+01  .176000000000D+04  .000000000000D+00
     .240000000000D+01  .000000000000D+00 -.372529029846D-08  .800000000000D+02
     .115206000000D+06  .400000000000D+01
 9 13  9 30 10  0  0.0  .272123143077D-03  .272848410532D-11  .000000000000D+00
     .280000000000D+02  .368750000000D+02  .388016162431D-08 -.168763679522D+01
     .233203172684D-05  .168475344544D-01  .103097409010D-04  .515372377014D+04
     .122400000000D+06  .000000000000D+00 -.579737115326D+00  .409781932831D-06
     .983631224440D+00  .197062500000D+03  .173072536928D+01 -.764817572007D-08
     .278583032673D-10  .100000000000D+01  .176000000000D+04  .000000000000D+00
     .240000000000D+01  .000000000000D+00 -.558793544769D-08  .280000000000D+02
     .115206000000D+06  .400000000000D+01
10 13  9 30 10  0  0.0 -.963541679084D-04 -.136424205266D-11  .000000000000D+00
     .130000000000D+02  .419687500000D+02  .515128600031D-08  .103641392317D+01
     .225007534027D-05  .128474943340D-01  .637583434582D-05  .515366278648D+04
     .122400000000D+06 -.121071934700D-06 -.265817354673D+01  .119209289551D-06
     .943217686791D+00  .249000000000D+03  .818713583027D+00 -.861071581373D-08
     .138934358602D-09  .100000000000D+01  .176000000000D+04  .000000000000D+00
     .240000000000D+01  .000000000000D+00 -.232830643654D-08  .130000000000D+02
     .115206000000D+06  .400000000000D+01
11 13  9 30 10  0  0.0 -.424379482865D-03 -.341060513165D-11  .000000000000D+00
     .102000000000D+03 -.631562500000D+02  .577881213929D-08 -.263105070468D+01
    -.321492552757D-05  .146372577874D-01  .981986522675D-05  .515369698715D+04
     .122400000000D+06  .182539224625D-06  .225892299122D+01 -.353902578354D-07
     .889493426194D+00  .148187500000D+03  .121822481006D+01 -.839856411962D-08
    -.285726187357D-11  .100000000000D+01  .176000000000D+04  .000000000000D+00
     .240000000000D+01  .000000000000D+00 -.116415321827D-07  .102000000000D+03
     .115206000000D+06  .400000000000D+01
12 13  9 30 10  0  0.0  .159323681146D-03  .216004991671D-11  .000000000000D+00
     .790000000000D+02  .330000000000D+02  .419124601079D-08  .310762915394D+01
     .161305069923D-05  .451996421907D-02  .471621751785D-05  .515375347519D+04
     .122400000000D+06 -.763684511185D-07  .502072766512D+00 -.651925802231D-07
     .985451666532D+00  .299531250000D+03  .334583688159D+00 -.797068915405D-08
     .165006873199D-09  .100000000000D+01  .176000000000D+04  .000000000000D+00
     .240000000000D+01  .000000000000D+00 -.116415321827D-07  .790000000000D+02
     .115206000000D+06  .400000000000D+01
13 13  9 30 10  0  0.0  .748406164348D-04 -.375166564481D-11  .000000000000D+00
     .290000000000D+02 -.286250000000D+02  .422696178421D-08 -.530535625430D+00
    -.173784792423D-05  .503110873979D-02  .749714672565D-05  .515369410515D+04
     .122400000000D+06 -.894069671631D-07 -.152372488219D+01 -.596046447754D-07
     .979824334165D+00  .245750000000D+03  .220275618555D+01 -.799604735318D-08
    -.266439669710D-09  .100000000000D+01  .176000000000D+04  .000000000000D+00
     .240000000000D+01  .000000000000D+00 -.107102096081D-07  .290000000000D+02
     .115206000000D+06  .400000000000D+01
15 13  9 30 10  0  0.0 -.139615498483D-03 -.181898940355D-11  .000000000000D+00
     .620000000000D+02 -.229062500000D+02  .520200239857D-08 -.760948537887D+00
    -.123120844364D-05  .559185200837D-02  .648386776447D-05  .515356509399D+04
     .122400000000D+06  .119209289551D-06 -.165801549098D+01 -.335276126862D-07
     .939066383176D+00  .239000000000D+03  .160326899150D+00 -.845642367256D-08
    -.260725145963D-09  .100000000000D+01  .176000000000D+04  .000000000000D+00
     .240000000000D+01  .000000000000D+00 -.977888703346D-08  .620000000000D+02
     .115206000000D+06  .400000000000D+01
16 13  9 30 10  0  0.0 -.245597679168D-03  .909494701773D-12  .000000000000D+00
     .810000000000D+02  .360625000000D+02  .428232123301D-08  .934299523131D+00
     .203959643841D-05  .706984836143D-02  .464543700218D-05  .515371809769D+04
     .122400000000D+06  .242143869400D-07  .520510714503D+00  .651925802231D-07
     .986100520439D+00  .299375000000D+03  .137055260627D+00 -.815783980677D-08
     .100004165575D-09  .100000000000D+01  .176000000000D+04  .000000000000D+00
     .240000000000D+01  .000000000000D+00 -.977888703346D-08  .810000000000D+02
     .115206000000D+06  .400000000000D+01
17 13  9 30 10  0  0.0 -.264081172645D-04 -.363797880709D-11  .000000000000D+00
     .510000000000D+02 -.661562500000D+02  .461126350621D-08 -.218266046171D-01
    -.343471765518D-05  .854330218863D-02  .605732202530D-05  .515368793869D+04
     .122400000000D+06 -.316649675369D-07  .155589116504D+01  .106170773506D-06
     .966130591469D+00  .267093750000D+03 -.218967597899D+01 -.835784813792D-08
    -.310727228751D-09  .100000000000D+01  .176000000000D+04  .000000000000D+00
     .240000000000D+01  .000000000000D+00 -.102445483208D-07  .510000000000D+02
     .115206000000D+06  .400000000000D+01
19 13  9 30 10  0  0.0 -.407930463552D-03 -.272848410532D-11  .000000000000D+00
     .330000000000D+02 -.822812500000D+02  .455554689967D-08 -.865044099119D+00
    -.428594648838D-05  .956909393426D-02  .633858144283D-05  .515374591446D+04
     .122400000000D+06  .268220901489D-06  .160748850953D+01 -.242143869400D-07
     .963335784494D+00  .258625000000D+03  .386453123701D+00 -.822855703814D-08
    -.343942898031D-09  .100000000000D+01  .176000000000D+04  .000000000000D+00
     .240000000000D+01  .000000000000D+00 -.144354999065D-07  .330000000000D+02
     .115206000000D+06  .400000000000D+01
20 13  9 30 10  0  0.0  .125988852233D-03  .272848410532D-11  .000000000000D+00
     .330000000000D+02  .458437500000D+02  .536272337895D-08  .197887165474D+01
     .232458114624D-05  .558734883089D-02  .650808215141D-05  .515366827393D+04
     .122400000000D+06  .167638063431D-07 -.273029108950D+01 -.134110450745D-06
     .927876938256D+00  .235062500000D+03  .128512639156D+01 -.850571143988D-08
     .352871841386D-09  .100000000000D+01  .176000000000D+04  .000000000000D+00
     .240000000000D+01  .000000000000D+00 -.791624188423D-08  .330000000000D+02
     .115206000000D+06  .400000000000D+01
